[{"OBJECT_NAME":"JY1SAT (JO-97)","OBJECT_ID":"2018-099AX","EPOCH":"2026-03-09T16:28:19.890048","MEAN_MOTION":15.30302629,"ECCENTRICITY":0.00047232,"INCLINATION":97.4249,"RA_OF_ASC_NODE":131.3625,"ARG_OF_PERICENTER":256.6795,"MEAN_ANOMALY":103.3919,"EPHEMERIS_TYPE":0,"CLASSIFICATION_TYPE":"U","NORAD_CAT_ID":43803,"ELEMENT_SET_NO":999,"REV_AT_EPOCH":39839,"BSTAR":0.00060804308,"MEAN_MOTION_DOT":0.00017774,"MEAN_MOTION_DDOT":0},{"OBJECT_NAME":"STARLINK-31791","OBJECT_ID":"2024-082G","EPOCH":"2026-03-09T05:24:39.890880","MEAN_MOTION":15.27551311,"ECCENTRICITY":3.667e-5,"INCLINATION":42.9988,"RA_OF_ASC_NODE":142.1953,"ARG_OF_PERICENTER":200.7339,"MEAN_ANOMALY":159.3497,"EPHEMERIS_TYPE":0,"CLASSIFICATION_TYPE":"U","NORAD_CAT_ID":59637,"ELEMENT_SET_NO":999,"REV_AT_EPOCH":10474,"BSTAR":0.00011811975,"MEAN_MOTION_DOT":2.987e-5,"MEAN_MOTION_DDOT":0}]
